[{"OBJECT_NAME":"STARLINK-34746","OBJECT_ID":"2025-152F","EPOCH":"2026-03-09T14:13:47.414496","MEAN_MOTION":15.0564453,"ECCENTRICITY":0.0001778,"INCLINATION":97.6018,"RA_OF_ASC_NODE":285.425,"ARG_OF_PERICENTER":84.6912,"MEAN_ANOMALY":275.4518,"EPHEMERIS_TYPE":0,"CLASSIFICATION_TYPE":"U","NORAD_CAT_ID":64847,"ELEMENT_SET_NO":999,"REV_AT_EPOCH":3540,"BSTAR":0.00039503,"MEAN_MOTION_DOT":5.643e-5,"MEAN_MOTION_DDOT":0},{"OBJECT_NAME":"FALCON 9 DEB","OBJECT_ID":"2021-041BG","EPOCH":"2026-03-09T15:47:07.516032","MEAN_MOTION":15.0585876,"ECCENTRICITY":0.00124165,"INCLINATION":53.0346,"RA_OF_ASC_NODE":200.9185,"ARG_OF_PERICENTER":159.6872,"MEAN_ANOMALY":200.4613,"EPHEMERIS_TYPE":0,"CLASSIFICATION_TYPE":"U","NORAD_CAT_ID":48607,"ELEMENT_SET_NO":999,"REV_AT_EPOCH":26415,"BSTAR":0.00013916149,"MEAN_MOTION_DOT":1.762e-5,"MEAN_MOTION_DDOT":0}]
